{"type": "FeatureCollection", "features": [ {"type": "Feature", "properties": {"norad_id": 30081, "name": "FENGYUN 1C DEB", "group": "fengyun-1c-debris", "lat": -56.565074547079945, "lon": -0.5524806068241571, "alt_km": 858.4848673895012, "timestamp": "2025-12-15T11:38:37.427027+00:00", "meta": {"OBJECT_NAME": "FENGYUN 1C DEB", "OBJECT_ID": "1999-025QJ", "EPOCH": "2025-12-14T22:27:09.567360", "MEAN_MOTION": 13.9828125, "ECCENTRICITY": 0.00758663, "INCLINATION": 98.9229, "RA_OF_ASC_NODE": 345.1478, "ARG_OF_PERICENTER": 333.1859, "MEAN_ANOMALY": 84.4521, "EPHEMERIS_TYPE": 0, "CLASSIFICATION_TYPE": "U", "NORAD_CAT_ID": 30081, "ELEMENT_SET_NO": 999, "REV_AT_EPOCH": 96385, "BSTAR": 0.00061729393, "MEAN_MOTION_DOT": 8.59e-06, "MEAN_MOTION_DDOT": 0}, "tle": {"line1": "1 30081U 99025QJ  25348.93552740  .00000859  00000+0  61729-3 0  9993", "line2": "2 30081  98.9229 345.1478 0075866 333.1859  84.4521 13.98281250963853"}}, "geometry": {"type": "Point", "coordinates": [-0.5524806068241571, -56.565074547079945]}}, {"type": "Feature", "properties": {"norad_id": 30082, "name": "FENGYUN 1C DEB", "group": "fengyun-1c-debris", "lat": -78.0342987772282, "lon": 50.574635515030245, "alt_km": 539.500124370832, "timestamp": "2025-12-15T11:38:37.427037+00:00", "meta": {"OBJECT_NAME": "FENGYUN 1C DEB", "OBJECT_ID": "1999-025QK", "EPOCH": "2025-12-14T18:38:49.991136", "MEAN_MOTION": 15.15220242, "ECCENTRICITY": 0.00698152, "INCLINATION": 98.8175, "RA_OF_ASC_NODE": 276.846, "ARG_OF_PERICENTER": 159.4625, "MEAN_ANOMALY": 200.9435, "EPHEMERIS_TYPE": 0, "CLASSIFICATION_TYPE": "U", "NORAD_CAT_ID": 30082, "ELEMENT_SET_NO": 999, "REV_AT_EPOCH": 1324, "BSTAR": 0.00093062442, "MEAN_MOTION_DOT": 0.00018539, "MEAN_MOTION_DDOT": 0}, "tle": {"line1": "1 30082U 99025QK  25348.77696749  .00018539  00000+0  93062-3 0  9993", "line2": "2 30082  98.8175 276.8460 0069815 159.4625 200.9435 15.15220242 13244"}}, "geometry": {"type": "Point", "coordinates": [50.574635515030245, -78.0342987772282]}}, {"type": "Feature", "properties": {"norad_id": 30086, "name": "FENGYUN 1C DEB", "group": "fengyun-1c-debris", "lat": 32.84009962097862, "lon": -151.07502273144374, "alt_km": 836.1788024674179, "timestamp": "2025-12-15T11:38:37.427047+00:00", "meta": {"OBJECT_NAME": "FENGYUN 1C DEB", "OBJECT_ID": "1999-025QP", "EPOCH": "2025-12-14T21:51:07.053984", "MEAN_MOTION": 14.03831874, "ECCENTRICITY": 0.00618222, "INCLINATION": 98.9102, "RA_OF_ASC_NODE": 22.5503, "ARG_OF_PERICENTER": 128.6095, "MEAN_ANOMALY": 355.1698, "EPHEMERIS_TYPE": 0, "CLASSIFICATION_TYPE": "U", "NORAD_CAT_ID": 30086, "ELEMENT_SET_NO": 999, "REV_AT_EPOCH": 96726, "BSTAR": 0.00059796018, "MEAN_MOTION_DOT": 9.16e-06, "MEAN_MOTION_DDOT": 0}, "tle": {"line1": "1 30086U 99025QP  25348.91049831  .00000916  00000+0  59796-3 0  9993", "line2": "2 30086  98.9102  22.5503 0061822 128.6095 355.1698 14.03831874967261"}}, "geometry": {"type": "Point", "coordinates": [-151.07502273144374, 32.84009962097862]}}, {"type": "Feature", "properties": {"norad_id": 30087, "name": "FENGYUN 1C DEB", "group": "fengyun-1c-debris", "lat": 3.9737583730970596, "lon": 21.068264563900758, "alt_km": 825.5330641654509, "timestamp": "2025-12-15T11:38:37.427057+00:00", "meta": {"OBJECT_NAME": "FENGYUN 1C DEB", "OBJECT_ID": "1999-025QQ", "EPOCH": "2025-12-14T14:27:34.074144", "MEAN_MOTION": 14.35706217, "ECCENTRICITY": 0.0230376, "INCLINATION": 98.3803, "RA_OF_ASC_NODE": 20.7964, "ARG_OF_PERICENTER": 115.8332, "MEAN_ANOMALY": 11.2856, "EPHEMERIS_TYPE": 0, "CLASSIFICATION_TYPE": "U", "NORAD_CAT_ID": 30087, "ELEMENT_SET_NO": 999, "REV_AT_EPOCH": 98722, "BSTAR": 0.00028981645, "MEAN_MOTION_DOT": 1.084e-05, "MEAN_MOTION_DDOT": 0}, "tle": {"line1": "1 30087U 99025QQ  25348.60247771  .00001084  00000+0  28982-3 0  9993", "line2": "2 30087  98.3803  20.7964 0230376 115.8332  11.2856 14.35706217987220"}}, "geometry": {"type": "Point", "coordinates": [21.068264563900758, 3.9737583730970596]}}, {"type": "Feature", "properties": {"norad_id": 30088, "name": "FENGYUN 1C DEB", "group": "fengyun-1c-debris", "lat": -81.33794484655708, "lon": 78.98105293742215, "alt_km": 652.501533787311, "timestamp": "2025-12-15T11:38:37.427067+00:00", "meta": {"OBJECT_NAME": "FENGYUN 1C DEB", "OBJECT_ID": "1999-025QR", "EPOCH": "2025-12-14T23:01:49.505664", "MEAN_MOTION": 14.35917411, "ECCENTRICITY": 0.02008082, "INCLINATION": 98.3542, "RA_OF_ASC_NODE": 333.173, "ARG_OF_PERICENTER": 240.7937, "MEAN_ANOMALY": 190.659, "EPHEMERIS_TYPE": 0, "CLASSIFICATION_TYPE": "U", "NORAD_CAT_ID": 30088, "ELEMENT_SET_NO": 999, "REV_AT_EPOCH": 98704, "BSTAR": 0.00030887623, "MEAN_MOTION_DOT": 1.076e-05, "MEAN_MOTION_DDOT": 0}, "tle": {"line1": "1 30088U 99025QR  25348.95960076  .00001076  00000+0  30888-3 0  9991", "line2": "2 30088  98.3542 333.1730 0200808 240.7937 190.6590 14.35917411987046"}}, "geometry": {"type": "Point", "coordinates": [78.98105293742215, -81.33794484655708]}}, {"type": "Feature", "properties": {"norad_id": 30089, "name": "FENGYUN 1C DEB", "group": "fengyun-1c-debris", "lat": -62.49163644750586, "lon": 57.42421014816807, "alt_km": 758.506581223136, "timestamp": "2025-12-15T11:38:37.427078+00:00", "meta": {"OBJECT_NAME": "FENGYUN 1C DEB", "OBJECT_ID": "1999-025QS", "EPOCH": "2025-12-14T16:19:03.251136", "MEAN_MOTION": 14.30307823, "ECCENTRICITY": 0.00733686, "INCLINATION": 98.9031, "RA_OF_ASC_NODE": 254.1188, "ARG_OF_PERICENTER": 204.2758, "MEAN_ANOMALY": 214.9655, "EPHEMERIS_TYPE": 0, "CLASSIFICATION_TYPE": "U", "NORAD_CAT_ID": 30089, "ELEMENT_SET_NO": 999, "REV_AT_EPOCH": 98507, "BSTAR": 0.00027119069, "MEAN_MOTION_DOT": 6.78e-06, "MEAN_MOTION_DDOT": 0}, "tle": {"line1": "1 30089U 99025QS  25348.67989874  .00000678  00000+0  27119-3 0  9998", "line2": "2 30089  98.9031 254.1188 0073368 204.2758 214.9655 14.30307823985078"}}, "geometry": {"type": "Point", "coordinates": [57.42421014816807, -62.49163644750586]}}, {"type": "Feature", "properties": {"norad_id": 30090, "name": "FENGYUN 1C DEB", "group": "fengyun-1c-debris", "lat": 53.663822255933496, "lon": -4.182396147253318, "alt_km": 750.9055987182492, "timestamp": "2025-12-15T11:38:37.427088+00:00", "meta": {"OBJECT_NAME": "FENGYUN 1C DEB", "OBJECT_ID": "1999-025QT", "EPOCH": "2025-12-14T10:08:32.949312", "MEAN_MOTION": 14.29033158, "ECCENTRICITY": 0.00581793, "INCLINATION": 99.409, "RA_OF_ASC_NODE": 161.6435, "ARG_OF_PERICENTER": 107.0055, "MEAN_ANOMALY": 314.6673, "EPHEMERIS_TYPE": 0, "CLASSIFICATION_TYPE": "U", "NORAD_CAT_ID": 30090, "ELEMENT_SET_NO": 999, "REV_AT_EPOCH": 98294, "BSTAR": 0.00043121031, "MEAN_MOTION_DOT": 1.061e-05, "MEAN_MOTION_DDOT": 0}, "tle": {"line1": "1 30090U 99025QT  25348.42260358  .00001061  00000+0  43121-3 0  9990", "line2": "2 30090  99.4090 161.6435 0058179 107.0055 314.6673 14.29033158982947"}}, "geometry": {"type": "Point", "coordinates": [-4.182396147253318, 53.663822255933496]}}, {"type": "Feature", "properties": {"norad_id": 30092, "name": "FENGYUN 1C DEB", "group": "fengyun-1c-debris", "lat": -3.403443473130621, "lon": -11.683518892416567, "alt_km": 733.8360136221991, "timestamp": "2025-12-15T11:38:37.427098+00:00", "meta": {"OBJECT_NAME": "FENGYUN 1C DEB", "OBJECT_ID": "1999-025QV", "EPOCH": "2025-12-14T11:40:59.344608", "MEAN_MOTION": 14.39147427, "ECCENTRICITY": 0.00826501, "INCLINATION": 98.9226, "RA_OF_ASC_NODE": 167.8135, "ARG_OF_PERICENTER": 245.1805, "MEAN_ANOMALY": 169.4736, "EPHEMERIS_TYPE": 0, "CLASSIFICATION_TYPE": "U", "NORAD_CAT_ID": 30092, "ELEMENT_SET_NO": 999, "REV_AT_EPOCH": 98774, "BSTAR": 0.0006895237, "MEAN_MOTION_DOT": 2.172e-05, "MEAN_MOTION_DDOT": 0}, "tle": {"line1": "1 30092U 99025QV  25348.48679797  .00002172  00000+0  68952-3 0  9992", "line2": "2 30092  98.9226 167.8135 0082650 245.1805 169.4736 14.39147427987742"}}, "geometry": {"type": "Point", "coordinates": [-11.683518892416567, -3.403443473130621]}}, {"type": "Feature", "properties": {"norad_id": 30093, "name": "FENGYUN 1C DEB", "group": "fengyun-1c-debris", "lat": 78.89473060404427, "lon": 171.47780734930458, "alt_km": 758.7704302318143, "timestamp": "2025-12-15T11:38:37.427108+00:00", "meta": {"OBJECT_NAME": "FENGYUN 1C DEB", "OBJECT_ID": "1999-025QW", "EPOCH": "2025-12-14T22:03:18.583776", "MEAN_MOTION": 14.4370494, "ECCENTRICITY": 0.00700055, "INCLINATION": 98.8681, "RA_OF_ASC_NODE": 223.5812, "ARG_OF_PERICENTER": 331.1572, "MEAN_ANOMALY": 50.4182, "EPHEMERIS_TYPE": 0, "CLASSIFICATION_TYPE": "U", "NORAD_CAT_ID": 30093, "ELEMENT_SET_NO": 999, "REV_AT_EPOCH": 98835, "BSTAR": 0.00069886423, "MEAN_MOTION_DOT": 2.396e-05, "MEAN_MOTION_DDOT": 0}, "tle": {"line1": "1 30093U 99025QW  25348.91896509  .00002396  00000+0  69886-3 0  9998", "line2": "2 30093  98.8681 223.5812 0070005 331.1572  50.4182 14.43704940988353"}}, "geometry": {"type": "Point", "coordinates": [171.47780734930458, 78.89473060404427]}}, {"type": "Feature", "properties": {"norad_id": 30095, "name": "FENGYUN 1C DEB", "group": "fengyun-1c-debris", "lat": -37.05360897262676, "lon": 83.9806661745052, "alt_km": 659.8177832158372, "timestamp": "2025-12-15T11:38:37.427118+00:00", "meta": {"OBJECT_NAME": "FENGYUN 1C DEB", "OBJECT_ID": "1999-025QY", "EPOCH": "2025-12-14T18:26:57.410592", "MEAN_MOTION": 14.82060405, "ECCENTRICITY": 0.01652891, "INCLINATION": 99.22, "RA_OF_ASC_NODE": 270.2005, "ARG_OF_PERICENTER": 326.0789, "MEAN_ANOMALY": 32.9935, "EPHEMERIS_TYPE": 0, "CLASSIFICATION_TYPE": "U", "NORAD_CAT_ID": 30095, "ELEMENT_SET_NO": 999, "REV_AT_EPOCH": 99365, "BSTAR": 0.0019753562, "MEAN_MOTION_DOT": 0.00019891, "MEAN_MOTION_DDOT": 0}, "tle": {"line1": "1 30095U 99025QY  25348.76872003  .00019891  00000+0  19754-2 0  9992", "line2": "2 30095  99.2200 270.2005 0165289 326.0789  32.9935 14.82060405993656"}}, "geometry": {"type": "Point", "coordinates": [83.9806661745052, -37.05360897262676]}}]}